0 COSMOS 1375 DEB
1 17807U 82055AZ  13286.82130050  .00000576  00000-0  65936-3 0  2164
2 17807 065.8318 102.4009 0047760 097.9095 019.5333 13.76986579401106
0 COSMOS 1375 DEB
1 17807U 82055AZ  13288.85440653  .00000641  00000-0  72421-3 0  2173
2 17807 065.8323 097.3605 0047712 096.6883 018.1739 13.76990244401383
0 COSMOS 1375 DEB
1 17807U 82055AZ  13291.53058247  .00000630  00000-0  71358-3 0  2183
2 17807 065.8329 090.7262 0047669 095.0566 324.7424 13.76994281401750
0 COSMOS 1375 DEB
1 17807U 82055AZ  13293.79258155  .00000737  00000-0  82126-3 0  2197
2 17807 065.8331 085.1185 0047521 093.7876 018.0393 13.76997048402068
0 COSMOS 1375 DEB
1 17807U 82055AZ  13295.83574606  .00000743  00000-0  82699-3 0  2200
2 17807 065.8333 080.0535 0047418 092.5667 066.6118 13.77000369402340
